STARLINK-32723          
1 62449U 24251T   25136.70407447  .00000923  00000+0  33067-4 0  9995
2 62449  53.1617 276.5423 0001313  84.2663 275.8491 15.39617345 22280
STARLINK-32722          
1 62450U 24251U   25136.91668981  .00036621  00000+0  92180-3 0  9996
2 62450  53.1591 275.1836 0001169  84.0896 195.4160 15.39597140 22113
STARLINK-32720          
1 62451U 24251V   25136.53256494 -.00004587  00000+0 -10488-3 0  9996
2 62451  53.1612 277.6054 0001150  73.3360 286.7771 15.39589640 22055
STARLINK-32656          
1 62452U 24251W   25136.91668981  .00047910  00000+0  12012-2 0  9996
2 62452  53.1588 275.2861 0001283  88.2552 139.7430 15.39595127 22329
STARLINK-32690          
1 62453U 24251X   25136.69976138  .00000544  00000+0  23591-4 0  9996
2 62453  53.1609 276.5129 0001234  67.6045 292.5090 15.39617039 22078
ASTRANIS UTILITYSAT     
1 62454U 24252A   25135.61942134 -.00000281  00000+0  00000+0 0  9992
2 62454   8.7280 346.2079 7468333 206.0527  79.3036  1.01777269  1431
NUVIEW ALPHA            
1 62455U 24252B   25136.10499965 -.00000173  00000+0  00000+0 0  9997
2 62455   1.3168 323.8965 3916516 223.0290 119.1872  0.77234983  1269
AGILA                   
1 62456U 24252C   25136.44955624 -.00000160  00000+0  00000+0 0  9990
2 62456   0.9097 315.3208 3571977 232.0304  46.1515  0.79689006  1294
NUVIEW BRAVO            
1 62457U 24252D   25135.51197847 -.00000157  00000+0  00000+0 0  9999
2 62457   0.7266 327.9423 3258772 219.5623 104.6488  0.79632766  1265
SDX01                   
1 62459U 24253A   25136.87116234  .00018608  00000+0  49770-3 0  9993
2 62459  54.9983   3.6393 0002911 271.5359  88.5336 15.38148919 21066
SDX02                   
1 62460U 24253B   25136.28640333  .00017958  00000+0  48107-3 0  9992
2 62460  54.9999   6.2742 0002901 268.9319  91.1376 15.38126164 20967
STARLINK-11518 [DTC]    
1 62462U 24254A   25136.22715218 -.00001493  00000+0 -81475-5 0  9990
2 62462  43.0046 216.3903 0001547 275.5218  84.5473 15.70819600 22620
STARLINK-11455 [DTC]    
1 62463U 24254B   25135.66020653 -.00000888  00000+0 -34250-5 0  9996
2 62463  43.0012 219.8796 0001714 264.0525  96.0147 15.70827482 22524
STARLINK-11459 [DTC]    
1 62464U 24254C   25136.50258697 -.00000240  00000+0  16220-5 0  9990
2 62464  43.0013 214.1297 0001406 279.0262  81.0446 15.70828359 22656
STARLINK-11178 [DTC]    
1 62465U 24254D   25136.53444118 -.00000184  00000+0  20606-5 0  9999
2 62465  43.0011 214.3853 0001568 264.0494  96.0195 15.70830079 22508
STARLINK-11506 [DTC]    
1 62466U 24254E   25136.61913455 -.00000471  00000+0 -17570-6 0  9991
2 62466  43.0012 213.2762 0001549 267.9862  92.0828 15.70828437 22523
STARLINK-11486 [DTC]    
1 62467U 24254F   25136.22183495 -.00000143  00000+0  23788-5 0  9994
2 62467  43.0011 216.3429 0001420 267.3305  92.7400 15.70829188 22618
STARLINK-11511 [DTC]    
1 62468U 24254G   25136.26418238  .00000024  00000+0  36806-5 0  9997
2 62468  43.0004 215.7870 0001424 266.4108  93.6597 15.70829319 22623
STARLINK-11505 [DTC]    
1 62469U 24254H   25136.25356327 -.00000295  00000+0  12000-5 0  9998
2 62469  43.0018 215.7028 0001797 278.8434  81.2230 15.70829510 22615
STARLINK-11497 [DTC]    
1 62470U 24254J   25136.26949267  .00000218  00000+0  51974-5 0  9999
2 62470  43.0012 215.8315 0001318 270.4518  89.6198 15.70826291 22620
STARLINK-11477 [DTC]    
1 62471U 24254K   25136.26509263  .00000013  00000+0  36001-5 0  9995
2 62471  43.0012 215.7952 0001400 265.5279  94.5429 15.70829570 22612
STARLINK-11500 [DTC]    
1 62472U 24254L   25136.62444291  .00000179  00000+0  48927-5 0  9998
2 62472  43.0007 213.3166 0001605 273.1403  86.9281 15.70828136 22156
STARLINK-11464 [DTC]    
1 62473U 24254M   25136.59271286  .00004169  00000+0  35996-4 0  9991
2 62473  43.0034 213.9551 0001490 270.2005  89.8692 15.70821727 22673
STARLINK-11502 [DTC]    
1 62474U 24254N   25136.25887273 -.00000191  00000+0  20106-5 0  9994
2 62474  43.0006 215.7424 0001492 271.8536  88.2161 15.70827087 22624
STARLINK-32657          
1 62475U 24254P   25136.69623752 -.00000486  00000+0 -81071-5 0  9999
2 62475  43.0107 256.9160 0002245 249.8093 110.2518 15.27575105 22031
STARLINK-32734          
1 62476U 24254Q   25136.32753954  .00000344  00000+0  22009-4 0  9994
2 62476  42.9991 255.8613 0000407 277.3645  82.7160 15.27579007 22175
STARLINK-32733          
1 62477U 24254R   25136.35309222 -.00001032  00000+0 -27997-4 0  9991
2 62477  42.9971 255.1807 0001071 285.8674  74.2059 15.27571718 22181
STARLINK-32707          
1 62478U 24254S   25136.70957088  .00000732  00000+0  36124-4 0  9996
2 62478  43.0030 253.5584 0000861 277.3418  82.7336 15.27583602 22235
STARLINK-32705          
1 62479U 24254T   25135.35189910 -.00247668  00000+0 -82429-2 0  9998
2 62479  42.9991 253.6538 0002053 256.2267 103.8357 15.31456273 21957
STARLINK-32743          
1 62480U 24254U   25136.67231518  .00000381  00000+0  23382-4 0  9990
2 62480  42.9982 253.2818 0001047 285.1794  74.8942 15.27574509 22231
STARLINK-32753          
1 62481U 24254V   25136.68773250 -.00000125  00000+0  49652-5 0  9992
2 62481  43.0000 253.3935 0001118 272.7617  87.3106 15.27575012 22232
STARLINK-32699          
1 62482U 24254W   25135.83979949  .00001938  00000+0  79917-4 0  9990
2 62482  42.9990 261.6714 0000257  48.6512 311.4361 15.27579555 21917
THURAYA-4               
1 62483U 25001A   25136.45841383  .00000153  00000+0  00000+0 0  9991
2 62483   0.1030 255.5762 0001637 246.7558 301.3406  1.00271564   198
SHIJIAN-25 (SJ-25)      
1 62485U 25002A   25136.74211368 -.00000358  00000+0  00000+0 0  9998
2 62485  10.4398  42.7509 0061581 183.3475  35.6632  1.00261448  1395
STARLINK-32713          
1 62487U 25003A   25136.13449701  .00002148  00000+0  87509-4 0  9990
2 62487  43.0018 169.4650 0001947 268.3275  91.7354 15.27601414 21148
STARLINK-32732          
1 62488U 25003B   25136.42805091  .00000959  00000+0  44374-4 0  9992
2 62488  43.0003 167.3643 0001230 271.8044  88.2667 15.27577985 21097
STARLINK-32328          
1 62489U 25003C   25136.41149680 -.00000500  00000+0 -86481-5 0  9997
2 62489  43.0029 168.1060 0001380 273.3878  86.6816 15.27574633 21204
STARLINK-32332          
1 62490U 25003D   25136.39993222 -.00000606  00000+0 -12499-4 0  9999
2 62490  43.0033 168.0192 0001325 289.3739  70.6969 15.27574875 21185
STARLINK-32717          
1 62491U 25003E   25136.11911084 -.00000538  00000+0 -10050-4 0  9991
2 62491  42.9987 169.3524 0000913 276.4945  83.5803 15.27575212 21167
STARLINK-32757          
1 62492U 25003F   25136.14480998 -.00000382  00000+0 -43567-5 0  9997
2 62492  43.0053 169.5429 0001565 282.1985  77.8691 15.27578072 21047
STARLINK-32731          
1 62493U 25003G   25136.15765947 -.00000244  00000+0  65808-6 0  9998
2 62493  43.0034 169.6428 0001230 261.2545  98.8167 15.27577934 21166
STARLINK-32694          
1 62494U 25003H   25136.50112970  .00000783  00000+0  37938-4 0  9998
2 62494  43.0005 167.0554 0001020 260.4240  99.6496 15.27614823 21227
STARLINK-32708          
1 62495U 25003J   25136.40250000 -.00000569  00000+0 -11138-4 0  9993
2 62495  43.0038 168.0343 0001201 274.5127  85.5588 15.27577434 21088
STARLINK-32718          
1 62496U 25003K   25136.17036250  .00000400  00000+0  24051-4 0  9997
2 62496  42.9991 168.8755 0001394 296.2863  63.7845 15.27592547 21054
STARLINK-32729          
1 62497U 25003L   25136.11268288 -.00000452  00000+0 -68926-5 0  9999
2 62497  42.9983 169.2937 0001029 282.8845  77.1892 15.27576455 21162
STARLINK-32739          
1 62498U 25003M   25136.38964949  .00000056  00000+0  11566-4 0  9991
2 62498  43.0028 167.9376 0001572 283.2502  76.8174 15.27573963 21154
STARLINK-32714          
1 62499U 25003N   25136.15637653  .00000587  00000+0  30870-4 0  9994
2 62499  43.0022 169.6346 0001183 258.8532 101.2187 15.27578314 21167
STARLINK-32685          
1 62500U 25003P   25136.41021578 -.00001143  00000+0 -32036-4 0  9996
2 62500  43.0040 168.1004 0001390 277.6925  82.3769 15.27574861 21157
STARLINK-32691          
1 62501U 25003Q   25136.38836270  .00000099  00000+0  13139-4 0  9996
2 62501  43.0034 167.9272 0002160 292.7016  67.3607 15.27578118 21197
STARLINK-32788          
1 62502U 25003R   25136.38451071  .00000715  00000+0  35510-4 0  9991
2 62502  43.0007 167.8994 0001079 287.6515  72.4219 15.27576612 21084
STARLINK-32768          
1 62503U 25003S   25136.43317552  .00006241  00000+0  23627-3 0  9998
2 62503  43.0003 167.3998 0001539 287.6140  72.4543 15.27560089 21097
STARLINK-32792          
1 62504U 25003T   25136.42419824  .00000178  00000+0  15979-4 0  9998
2 62504  43.0004 167.3318 0001397 269.0662  91.0030 15.27576417 21090
STARLINK-32725          
1 62505U 25003U   25135.11775004  .00000801  00000+0  38618-4 0  9997
2 62505  42.9996 174.7132 0001365 263.3109  96.7587 15.27575713 20897
STARLINK-32681          
1 62506U 25003V   25136.32903850 -.00001055  00000+0 -28842-4 0  9996
2 62506  43.0005 149.7477 0000926 267.9660  92.1085 15.27573834 21402
STARLINK-32679          
1 62507U 25003W   25135.57174049  .00000599  00000+0  31314-4 0  9991
2 62507  43.0019 172.9429 0002788 286.3476  73.7069 15.27579138 21074
STARLINK-32749          
1 62508U 25003X   25136.11653936 -.00000768  00000+0 -18394-4 0  9993
2 62508  43.0001 169.3255 0001067 266.6064  93.4666 15.27578107 21040
STARLINK-32744          
1 62509U 25003Y   25136.15252071  .00000250  00000+0  18608-4 0  9995
2 62509  43.0031 169.6079 0001254 261.5197  98.5513 15.27579085 21043
STARLINK-32701          
1 62510U 25003Z   25136.13067871  .00001965  00000+0  80883-4 0  9995
2 62510  43.0022 169.4345 0001112 248.7889 111.2844 15.27584432 21049
STARLINK-11452 [DTC]    
1 62511U 25004A   25136.15107758 -.00001755  00000+0 -10188-4 0  9998
2 62511  43.0021  64.1790 0001294 268.9122  91.1597 15.70839272 21335
